1 28895U 05043F   10093.61632876  .00000132  00000-0  37043-4 0  9993
2 28895 098.0245 340.5235 0018300 155.6661 204.5704 14.59868217236101
1 28895U 05043F   10094.71296844  .00000149  00000-0  40527-4 0  9995
2 28895 098.0241 341.5844 0018331 152.4120 207.8088 14.59868707236265
1 28895U 05043F   10095.67253159 +.00000243 +00000-0 +60142-4 0  9993
2 28895 098.0240 342.5131 0018334 149.4557 210.7721 14.59869533236408
1 28895U 05043F   10096.15231318  .00000329  00000-0  78010-4 0  9998
2 28895 098.0241 342.9773 0018359 147.9222 212.3126 14.59870349236475
1 28895U 05043F   10096.63209459 +.00000325 +00000-0 +77198-4 0  9994
2 28895 098.0238 343.4413 0018448 146.6067 213.6322 14.59870557236541
1 28895U 05043F   10097.18041571  .00000297  00000-0  71272-4 0  9999
2 28895 098.0236 343.9716 0018541 145.1398 215.1032 14.59870865236621
1 28895U 05043F   10097.66019673 +.00000420 +00000-0 +97096-4 0  9990
2 28895 098.0236 344.4357 0018595 143.8178 216.4314 14.59871810236693
1 28895U 05043F   10098.68829750  .00000405  00000-0  93779-4 0  9995
2 28895 098.0231 345.4309 0018732 140.6093 219.6444 14.59872629236845
1 28895U 05043F   10099.64785969 +.00000209 +00000-0 +52981-4 0  9997
2 28895 098.0235 346.3598 0018839 137.8882 222.3768 14.59872431236987
1 28895U 05043F   10100.19618047  .00000213  00000-0  53924-4 0  9995
2 28895 098.0245 346.8906 0018852 136.0471 224.2239 14.59872838237061
1 28895U 05043F   10100.67596083 +.00000136 +00000-0 +37748-4 0  9993
2 28895 098.0246 347.3547 0019060 135.0039 225.2695 14.59872555237131
1 28895U 05043F   10101.22428177  .00000039  00000-0  17502-4 0  9991
2 28895 098.0256 347.8856 0018961 133.1686 227.1082 14.59872209237212
1 28895U 05043F   10101.63552275 +.00000169 +00000-0 +44680-4 0  9994
2 28895 098.0253 348.2840 0018890 131.8731 228.4119 14.59873032237270
1 28895U 05043F   10102.45800292  .00000211  00000-0  53474-4 0  9999
2 28895 098.0255 349.0804 0018798 128.9891 231.2995 14.59873542237395
1 28895U 05043F   10102.86924290 +.00000257 +00000-0 +63063-4 0  9994
2 28895 098.0260 349.4784 0018810 127.6394 232.6527 14.59874026237452
1 28895U 05043F   10103.69172270  .00000245  00000-0  60494-4 0  9991
2 28895 098.0258 350.2745 0018808 125.1481 235.1490 14.59874432237574
1 28895U 05043F   10104.65128172 +.00000281 +00000-0 +68057-4 0  9993
2 28895 098.0259 351.2037 0018799 121.9798 238.3217 14.59875172237714
1 28895U 05043F   10105.19960144  .00000175  00000-0  45889-4 0  9996
2 28895 098.0253 351.7342 0018732 120.2672 240.0391 14.59875238237796
1 28895U 05043F   10105.67938079 +.00000208 +00000-0 +52828-4 0  9999
2 28895 098.0255 352.1986 0018699 118.5259 241.7822 14.59875586237861
1 28895U 05043F   10106.63894005  .00000111  00000-0  32613-4 0  9999
2 28895 098.0251 353.1277 0018742 115.4896 244.8243 14.59875462238004
1 28895U 05043F   10107.73557862  .00000028  00000-0  15301-4 0  9990
2 28895 098.0235 354.1891 0018988 112.8291 247.4919 14.59875406238165
1 28895U 05043F   10108.69513661 +.00000215 +00000-0 +54183-4 0  9994
2 28895 098.0231 355.1174 0019050 110.1416 250.1862 14.59876638238309
1 28895U 05043F   10108.96929548  .00000248  00000-0  61173-4 0  9992
2 28895 098.0230 355.3826 0019061 109.2841 251.0430 14.59876973238344
1 28895U 05043F   10109.72323340 +.00000279 +00000-0 +67633-4 0  9996
2 28895 098.0225 356.1119 0019103 107.3610 252.9693 14.59877461238458
1 28895U 05043F   10110.20301171  .00000259  00000-0  63479-4 0  9991
2 28895 098.0224 356.5761 0019232 106.4756 253.8592 14.59877949238525
1 28895U 05043F   10110.75132919 +.00000282 +00000-0 +68294-4 0  9999
2 28895 098.0217 357.1066 0019303 104.9566 255.3761 14.59878270238605
1 28895U 05043F   10111.23110747  .00000122  00000-0  34826-4 0  9995
2 28895 098.0235 357.5716 0019415 104.0929 256.2370 14.59877419238676
1 28895U 05043F   10111.71088713 +.00000195 +00000-0 +50010-4 0  9998
2 28895 098.0243 358.0364 0019477 103.1468 257.1949 14.59878079238749
1 28895U 05043F   10112.67044317  .00000083  00000-0  26776-4 0  9994
2 28895 098.0238 358.9648 0019423 100.2381 260.1026 14.59878004238883
1 28895U 05043F   10113.69853888  .00000293  00000-0  70437-4 0  9994
2 28895 098.0242 359.9596 0019307 096.5964 263.7471 14.59879343239034
1 28895U 05043F   10114.65809365 +.00000250 +00000-0 +61638-4 0  9998
2 28895 098.0241 000.8872 0019345 093.9314 266.4087 14.59879585239170
1 28895U 05043F   10114.93225249  .00000279  00000-0  67585-4 0  9990
2 28895 098.0252 001.1536 0019305 092.9933 267.3490 14.59879917239217
1 28895U 05043F   10115.68618919 +.00000007 +00000-0 +10832-4 0  9995
2 28895 098.0252 001.8831 0019203 090.0918 270.2483 14.59878976239322
1 28895U 05043F   10116.16596689  .00000098  00000-0  29764-4 0  9992
2 28895 098.0238 002.3461 0019182 088.4666 271.8743 14.59879449239397
1 28895U 05043F   10116.64574421 +.00000178 +00000-0 +46606-4 0  9998
2 28895 098.0237 002.8099 0019179 086.7280 273.6126 14.59880054239464
1 28895U 05043F   10117.19406042  .00000304  00000-0  72838-4 0  9999
2 28895 098.0238 003.3405 0019192 085.3082 275.0313 14.59880888239540
1 28895U 05043F   10118.22215382  .00000188  00000-0  48689-4 0  9996
2 28895 098.0238 004.3356 0019207 082.0831 278.2518 14.59880865239692
1 28895U 05043F   10118.63339177 +.00000193 +00000-0 +49562-4 0  9997
2 28895 098.0236 004.7336 0019204 080.6016 279.7362 14.59881174239752
1 28895U 05043F   10119.66148547  .00000161  00000-0  43012-4 0  9999
2 28895 098.0236 005.7296 0019113 077.2560 283.0816 14.59881398239900
1 28895U 05043F   10120.89519575  .00000157  00000-0  42055-4 0  9990
2 28895 098.0222 006.9226 0019085 073.8558 286.4749 14.59881967240083
1 28895U 05043F   10120.89519575 +.00000157 +00000-0 +42055-4 0  9990
2 28895 098.0222 006.9226 0019085 073.8558 286.4749 14.59881967240083
1 28895U 05043F   10121.71766947 +.00000289 +00000-0 +69710-4 0  9992
2 28895 098.0211 007.7185 0018946 072.2122 288.1182 14.59882835240208
1 28895U 05043F   10122.12890542  .00000257  00000-0  63079-4 0  9994
2 28895 098.0213 008.1166 0018973 071.1891 289.1381 14.59883213240264
1 28895U 05043F   10122.67722044 +.00000352 +00000-0 +82894-4 0  9997
2 28895 098.0211 008.6469 0018957 069.3867 290.9368 14.59883909240343
1 28895U 05043F   10123.22553544  .00000203  00000-0  51670-4 0  9999
2 28895 098.0208 009.1771 0018955 067.5533 292.7639 14.59883525240423
1 28895U 05043F   10123.70531190 +.00000112 +00000-0 +32750-4 0  9992
2 28895 098.0209 009.6414 0018933 066.3907 293.9270 14.59883355240493
1 28895U 05043F   10124.39070564  .00000174  00000-0  45716-4 0  9995
2 28895 098.0211 010.3045 0018959 064.3415 295.9716 14.59883822240592
1 28895U 05043F   10124.73340303 +.00000255 +00000-0 +62575-4 0  9996
2 28895 098.0211 010.6360 0018959 063.2685 297.0473 14.59884439240646
1 28895U 05043F   10125.62441332  .00000258  00000-0  63296-4 0  9993
2 28895 098.0209 011.4979 0019001 060.5741 299.7342 14.59885243240772
1 28895U 05043F   10126.72104242  .00000336  00000-0  79446-4 0  9992
2 28895 098.0215 012.5591 0018955 057.6846 302.6201 14.59886146240930
1 28895U 05043F   10126.72104242 +.00000336 +00000-0 +79446-4 0  9992
2 28895 098.0215 012.5591 0018955 057.6846 302.6201 14.59886146240930
1 28895U 05043F   10127.68059172 +.00000197 +00000-0 +50467-4 0  9996
2 28895 098.0219 013.4874 0018952 054.8691 305.4262 14.59886125241073
1 28895U 05043F   10127.95474912  .00000104  00000-0  31188-4 0  9996
2 28895 098.0222 013.7527 0018895 054.3003 305.9946 14.59885846241111
1 28895U 05043F   10128.70868146 +.00000168 +00000-0 +44537-4 0  9998
2 28895 098.0222 014.4822 0018876 051.8406 308.4517 14.59886329241226
1 28895U 05043F   10129.18845561  .00000210  00000-0  53201-4 0  9993
2 28895 098.0219 014.9462 0018884 050.4760 309.8129 14.59886913241294
1 28895U 05043F   10129.66822959 +.00000335 +00000-0 +79304-4 0  9992
2 28895 098.0219 015.4103 0018873 048.8618 311.4223 14.59887720241362
1 28895U 05043F   10130.35362017  .00000240  00000-0  59570-4 0  9992
2 28895 098.0227 016.0740 0018790 047.1880 313.0845 14.59887647241463
1 28895U 05043F   10130.69631698 +.00000214 +00000-0 +54053-4 0  9995
2 28895 098.0230 016.4055 0018802 046.1176 314.1570 14.59887741241519
1 28895U 05043F   10131.38170892  .00000026  00000-0  14876-4 0  9996
2 28895 098.0225 017.0686 0018644 044.2753 315.9917 14.59886963241614
1 28895U 05043F   10131.65586605 +.00000034 +00000-0 +16450-4 0  9998
2 28895 098.0226 017.3341 0018701 043.2895 316.9782 14.59887199241653
1 28895U 05043F   10132.68395237  .00000114  00000-0  33269-4 0  9997
2 28895 098.0220 018.3284 0018710 040.2222 320.0356 14.59888192241809
1 28895U 05043F   10133.71203966  .00000268  00000-0  65380-4 0  9998
2 28895 098.0212 019.3222 0018556 037.3234 322.9292 14.59889129241958
1 28895U 05043F   10133.71203966 +.00000268 +00000-0 +65380-4 0  9998
2 28895 098.0212 019.3222 0018556 037.3234 322.9292 14.59889129241958
1 28895U 05043F   10134.67158625 +.00000201 +00000-0 +51362-4 0  9997
2 28895 098.0211 020.2508 0018540 034.4112 325.8290 14.59889340242092
1 28895U 05043F   10135.15135960  .00000075  00000-0  25032-4 0  9992
2 28895 098.0208 020.7146 0018448 032.9864 327.2473 14.59888979242169
1 28895U 05043F   10135.35697706 +.00000029 +00000-0 +15511-4 0  9995
2 28895 098.0207 020.9133 0018408 032.4800 327.7511 14.59888676242192
1 28895U 05043F   10136.38506318  .00000163  00000-0  43391-4 0  9993
2 28895 098.0208 021.9079 0018396 029.2567 330.9663 14.59889567242344
1 28895U 05043F   10136.65921932 +.00000219 +00000-0 +55188-4 0  9995
2 28895 098.0205 022.1731 0018338 028.4321 331.7901 14.59890072242385
1 28895U 05043F   10137.41314806  .00000179  00000-0  46869-4 0  9997
2 28895 098.0205 022.9025 0018271 026.1544 334.0575 14.59890269242490
1 28895U 05043F   10138.71538911  .00000240  00000-0  59542-4 0  9997
2 28895 098.0189 024.1623 0018147 022.3105 337.8885 14.59891048242684
